EMISAT                  
1 44078U 19018A   26133.97563837 -.00000062  00000+0 -51142-5 0  9992
2 44078  98.4670 192.9589 0017749 324.3625  35.6379 14.43669694375128
JILIN-1 GAOFEN 3A       
1 44312U 19032C   26133.85737715  .00006115  00000+0  20464-3 0  9998
2 44312  44.9749 185.7577 0003185 106.9751 253.1482 15.31867872382577
PROX-1                  
1 44339U 19036A   26133.90675889  .00008940  00000+0  88071-3 0  9996
2 44339  23.9965 343.0870 0006559 357.6910   2.3558 14.89775846368357
NPSAT1                  
1 44340U 19036B   26133.26227835  .00003315  00000+0  45377-3 0  9994
2 44340  23.9982  85.1555 0008015 174.6190 185.4393 14.74245092367334
FORMOSAT 7-3            
1 44343U 19036E   26132.95523759  .00003082  00000+0  16631-3 0  9998
2 44343  23.9991  60.9713 0000602 196.2566 163.7919 15.09526982377912
FORMOSAT 7-1            
1 44349U 19036L   26133.63952034  .00001774  00000+0  12691-3 0  9990
2 44349  23.9973 265.2775 0000995 115.5361 244.5242 14.96359077379472
FORMOSAT 7-4            
1 44350U 19036M   26133.86193659  .00001857  00000+0  13406-3 0  9994
2 44350  23.9991 325.8818 0001196 137.9561 222.1032 14.96353676378926
FORMOSAT 7-2            
1 44351U 19036N   26133.01739227  .00001808  00000+0  12991-3 0  9993
2 44351  23.9988  25.8870 0000765 129.8456 230.2112 14.96347867378319
FORMOSAT 7-6            
1 44353U 19036Q   26133.48411703  .00001637  00000+0  11507-3 0  9994
2 44353  23.9963 203.5611 0001413  64.5600 295.5047 14.96360951376610
FORMOSAT 7-5            
1 44358U 19036V   26133.39478008  .00001581  00000+0  11031-3 0  9990
2 44358  23.9970 142.9111 0000678 119.6125 240.4444 14.96359187377137
METEOR-M2 2             
1 44387U 19038A   26133.96442417 -.00000281  00000+0 -10161-3 0  9993
2 44387  98.9136 120.7474 0002302 100.2867 259.8571 14.24355055356421
GLOBAL-4                
1 44499U 19054E   26133.04619501  .00030287  00000+0  35476-3 0  9997
2 44499  45.0061  78.6294 0003621 106.4142 253.7152 15.61031627374869
ZY-1 02D                
1 44528U 19059A   26133.98374587 -.00000114  00000+0 -25102-4 0  9994
2 44528  98.3209 196.6760 0000937 159.1917 200.9307 14.35448076349439
TAURUS-1 (JINNIUZUO 1)  
1 44530U 19059C   26133.98092645  .00002353  00000+0  38617-3 0  9998
2 44530  98.6387 296.7031 0009374  65.5752 294.6430 14.71709891353613
ZHUHAI-1 03B            
1 44536U 19060C   26133.97065404  .00021632  00000+0  35821-3 0  9993
2 44536  97.5486 289.9518 0009787  86.6676 273.5696 15.52147669371011
ZHUHAI-1 03C            
1 44537U 19060D   26133.97478500  .00318583  42062-4  81555-3 0  9997
2 44537  97.5460 302.5756 0005020 311.3670  48.7173 15.95287609371791
ZHUHAI-1 03D            
1 44538U 19060E   26133.97954161  .00020643  00000+0  39896-3 0  9999
2 44538  97.5346 282.3837 0008223  73.7234 286.4920 15.47774368370782
ZHUHAI-1 03E            
1 44539U 19060F   26133.94592664  .00012436  00000+0  31439-3 0  9999
2 44539  97.5564 282.7473 0007024 139.1677 221.0096 15.39912908370493
GAOFEN-7                
1 44703U 19072A   26133.93320696  .00002651  00000+0  12098-3 0  9996
2 44703  97.2450 196.6835 0017439 151.1688 209.0516 15.21324966362439
JILIN-1 GAOFEN 2A       
1 44777U 19075A   26133.93071420  .00009928  00000+0  26462-3 0  9992
2 44777  97.4967 216.9470 0006344 192.3212 167.7878 15.38352755359611
NINGXIA-1 1             
1 44779U 19076A   26133.97774274 -.00000044  00000+0  55851-4 0  9992
2 44779  45.0070 332.7273 0011186 353.0265   7.0412 14.02035435333052
NINGXIA-1 5             
1 44783U 19076E   26133.92094877  .00000016  00000+0  94699-4 0  9997
2 44783  45.0072 332.3364 0011220 342.8341  17.2112 14.02083914332960
KL-ALPHA A              
1 44785U 19077A   26133.95628588 -.00000028  00000+0 -57470-4 0  9996
2 44785  88.9257 226.3045 0010342 198.2184 161.8601 13.56038800321096
CARTOSAT-3              
1 44804U 19081A   26133.90818844  .00001982  00000+0  97328-4 0  9998
2 44804  97.4327 196.3211 0011085 271.5512  88.4453 15.19200212358264
JILIN-1 GAOFEN 2B       
1 44836U 19086A   26133.92614569  .00004123  00000+0  19237-3 0  9990
2 44836  97.4894 206.1407 0015694  81.7895 278.5119 15.20305023355288
TIANQIN 1 (CAS-6)       
1 44879U 19093A   26133.96222887  .00000923  00000+0  89031-4 0  9991
2 44879  97.7793 218.0552 0011652 162.1033 198.0600 14.95255042346936
ETRSS-1                 
1 44880U 19093B   26133.91168943  .00001562  00000+0  14558-3 0  9991
2 44880  97.7809 218.4340 0011962 161.4539 198.7120 14.95660169346936
