OBJECT_NAME,OBJECT_ID,EPOCH,MEAN_MOTION,ECCENTRICITY,INCLINATION,RA_OF_ASC_NODE,ARG_OF_PERICENTER,MEAN_ANOMALY,EPHEMERIS_TYPE,CLASSIFICATION_TYPE,NORAD_CAT_ID,ELEMENT_SET_NO,REV_AT_EPOCH,BSTAR,MEAN_MOTION_DOT,MEAN_MOTION_DDOT
EMISAT,2019-018A,2026-05-13T23:24:55.155168,14.43669694,.00177491,98.4670,192.9589,324.3625,35.6379,0,U,44078,999,37512,-.5114206E-5,-.62E-6,0
JILIN-1 GAOFEN 3A,2019-032C,2026-05-13T20:34:37.385760,15.31867872,.00031853,44.9749,185.7577,106.9751,253.1482,0,U,44312,999,38257,.20463828E-3,.6115E-4,0
PROX-1,2019-036A,2026-05-13T21:45:43.968096,14.89775846,.00065593,23.9965,343.0870,357.6910,2.3558,0,U,44339,999,36835,.8807113E-3,.894E-4,0
NPSAT1,2019-036B,2026-05-13T06:17:40.849440,14.74245092,.00080151,23.9982,85.1555,174.6190,185.4393,0,U,44340,999,36733,.4537683E-3,.3315E-4,0
FORMOSAT 7-3,2019-036E,2026-05-12T22:55:32.527776,15.09526982,.00006026,23.9991,60.9713,196.2566,163.7919,0,U,44343,999,37791,.16631498E-3,.3082E-4,0
FORMOSAT 7-1,2019-036L,2026-05-13T15:20:54.557376,14.96359077,.00009954,23.9973,265.2775,115.5361,244.5242,0,U,44349,999,37947,.126909E-3,.1774E-4,0
FORMOSAT 7-4,2019-036M,2026-05-13T20:41:11.321376,14.96353676,.00011964,23.9991,325.8818,137.9561,222.1032,0,U,44350,999,37892,.13406133E-3,.1857E-4,0
FORMOSAT 7-2,2019-036N,2026-05-13T00:25:02.692128,14.96347867,.00007656,23.9988,25.8870,129.8456,230.2112,0,U,44351,999,37831,.12990925E-3,.1808E-4,0
FORMOSAT 7-6,2019-036Q,2026-05-13T11:37:07.711392,14.96360951,.00014139,23.9963,203.5611,64.5600,295.5047,0,U,44353,999,37661,.11507471E-3,.1637E-4,0
FORMOSAT 7-5,2019-036V,2026-05-13T09:28:28.998912,14.96359187,.00006783,23.9970,142.9111,119.6125,240.4444,0,U,44358,999,37713,.11030542E-3,.1581E-4,0
METEOR-M2 2,2019-038A,2026-05-13T23:08:46.248288,14.24355055,.00023026,98.9136,120.7474,100.2867,259.8571,0,U,44387,999,35642,-.10160654E-3,-.281E-5,0
GLOBAL-4,2019-054E,2026-05-13T01:06:31.248864,15.61031627,.0003621,45.0061,78.6294,106.4142,253.7152,0,U,44499,999,37486,.35476E-3,.30287E-3,0
ZY-1 02D,2019-059A,2026-05-13T23:36:35.643168,14.35448076,.00009376,98.3209,196.6760,159.1917,200.9307,0,U,44528,999,34943,-.25101958E-4,-.114E-5,0
TAURUS-1 (JINNIUZUO 1),2019-059C,2026-05-13T23:32:32.045280,14.71709891,.00093744,98.6387,296.7031,65.5752,294.6430,0,U,44530,999,35361,.38616558E-3,.2353E-4,0
ZHUHAI-1 03B,2019-060C,2026-05-13T23:17:44.509056,15.52147669,.00097878,97.5486,289.9518,86.6676,273.5696,0,U,44536,999,37101,.35821486E-3,.21632E-3,0
ZHUHAI-1 03C,2019-060D,2026-05-13T23:23:41.424000,15.95287609,.00050201,97.5460,302.5756,311.3670,48.7173,0,U,44537,999,37179,.81555054E-3,.318583E-2,.42061629E-4
ZHUHAI-1 03D,2019-060E,2026-05-13T23:30:32.395104,15.47774368,.00082237,97.5346,282.3837,73.7234,286.4920,0,U,44538,999,37078,.39896087E-3,.20643E-3,0
ZHUHAI-1 03E,2019-060F,2026-05-13T22:42:08.061696,15.39912908,.0007024,97.5564,282.7473,139.1677,221.0096,0,U,44539,999,37049,.31439248E-3,.12436E-3,0
GAOFEN-7,2019-072A,2026-05-13T22:23:49.081344,15.21324966,.00174394,97.2450,196.6835,151.1688,209.0516,0,U,44703,999,36243,.12098455E-3,.2651E-4,0
JILIN-1 GAOFEN 2A,2019-075A,2026-05-13T22:20:13.706880,15.38352755,.00063443,97.4967,216.9470,192.3212,167.7878,0,U,44777,999,35961,.26461613E-3,.9928E-4,0
NINGXIA-1 1,2019-076A,2026-05-13T23:27:56.972736,14.02035435,.00111869,45.0070,332.7273,353.0265,7.0412,0,U,44779,999,33305,.55851326E-4,-.44E-6,0
NINGXIA-1 5,2019-076E,2026-05-13T22:06:09.973728,14.02083914,.00112203,45.0072,332.3364,342.8341,17.2112,0,U,44783,999,33296,.94699308E-4,.16E-6,0
KL-ALPHA A,2019-077A,2026-05-13T22:57:03.100032,13.56038800,.0010342,88.9257,226.3045,198.2184,161.8601,0,U,44785,999,32109,-.57470192E-4,-.28E-6,0
CARTOSAT-3,2019-081A,2026-05-13T21:47:47.481216,15.19200212,.0011085,97.4327,196.3211,271.5512,88.4453,0,U,44804,999,35826,.97328233E-4,.1982E-4,0
JILIN-1 GAOFEN 2B,2019-086A,2026-05-13T22:13:38.987616,15.20305023,.0015694,97.4894,206.1407,81.7895,278.5119,0,U,44836,999,35528,.19237224E-3,.4123E-4,0
TIANQIN 1 (CAS-6),2019-093A,2026-05-13T23:05:36.574368,14.95255042,.00116526,97.7793,218.0552,162.1033,198.0600,0,U,44879,999,34693,.89031113E-4,.923E-5,0
ETRSS-1,2019-093B,2026-05-13T21:52:49.966752,14.95660169,.00119627,97.7809,218.4340,161.4539,198.7120,0,U,44880,999,34693,.14557537E-3,.1562E-4,0
